{
  "type": "FeatureCollection",
  "features": [
    {
      "type": "Feature",
      "geometry": {
        "type": "Point",
        "coordinates": [
          168.318,
          -17.733
        ]
      },
      "properties": {
        "name": "Port Vila Community & Area Council Hall",
        "province": "Shefa",
        "approval_status": "Approved",
        "recorded_internal_capacity": 650,
        "centre_type": "Community Centre",
        "wash_facilities": "Operational Water Supply & Standard Latrines",
        "power_generator": "Standby 15kVA Diesel Generator",
        "status": "Active Registered Evacuation Shelter"
      }
    },
    {
      "type": "Feature",
      "geometry": {
        "type": "Point",
        "coordinates": [
          168.324,
          -17.702
        ]
      },
      "properties": {
        "name": "Bauerfield Malapoa Academic Shelter",
        "province": "Shefa",
        "approval_status": "Approved",
        "recorded_internal_capacity": 1200,
        "centre_type": "School / Educational Institution",
        "wash_facilities": "Enhanced Emergency Sanitation Blocks",
        "power_generator": "Grid Power with Dual Backup Solar",
        "status": "Active Registered Evacuation Shelter"
      }
    },
    {
      "type": "Feature",
      "geometry": {
        "type": "Point",
        "coordinates": [
          168.177,
          -16.796
        ]
      },
      "properties": {
        "name": "Epi Island Valesdir Relief Centre",
        "province": "Shefa",
        "approval_status": "Under Review",
        "recorded_internal_capacity": 320,
        "centre_type": "Church / Assembly Hall",
        "wash_facilities": "Rainwater Tank System",
        "power_generator": "Solar Battery Storage",
        "status": "Pending Inspection Approval"
      }
    },
    {
      "type": "Feature",
      "geometry": {
        "type": "Point",
        "coordinates": [
          167.181,
          -15.518
        ]
      },
      "properties": {
        "name": "Luganville Northern Regional Relief Depot",
        "province": "Sanma",
        "approval_status": "Approved",
        "recorded_internal_capacity": 850,
        "centre_type": "Multipurpose Sports Complex",
        "wash_facilities": "High Capacity Municipal WASH Station",
        "power_generator": "30kVA Generator & Solar Array",
        "status": "Active Registered Evacuation Shelter"
      }
    },
    {
      "type": "Feature",
      "geometry": {
        "type": "Point",
        "coordinates": [
          167.165,
          -15.42
        ]
      },
      "properties": {
        "name": "Matevulu College Emergency Compound",
        "province": "Sanma",
        "approval_status": "Approved",
        "recorded_internal_capacity": 550,
        "centre_type": "School",
        "wash_facilities": "Standard School Sanitation",
        "power_generator": "10kVA Standby Generator",
        "status": "Active Registered Evacuation Shelter"
      }
    },
    {
      "type": "Feature",
      "geometry": {
        "type": "Point",
        "coordinates": [
          169.262,
          -19.516
        ]
      },
      "properties": {
        "name": "Lenakel Provincial Administration Complex",
        "province": "Tafea",
        "approval_status": "Approved",
        "recorded_internal_capacity": 420,
        "centre_type": "Government Building",
        "wash_facilities": "Onsite Water Storage & Sanitary Facilities",
        "power_generator": "Backup Diesel Generator",
        "status": "Active Registered Evacuation Shelter"
      }
    },
    {
      "type": "Feature",
      "geometry": {
        "type": "Point",
        "coordinates": [
          169.283,
          -18.856
        ]
      },
      "properties": {
        "name": "Erromango Ipota Community Hall",
        "province": "Tafea",
        "approval_status": "Pending",
        "recorded_internal_capacity": 210,
        "centre_type": "Community Centre",
        "wash_facilities": "Gravity Fed Water Supply",
        "power_generator": "Solar Lighting System",
        "status": "Under Review Approval"
      }
    },
    {
      "type": "Feature",
      "geometry": {
        "type": "Point",
        "coordinates": [
          167.401,
          -16.079
        ]
      },
      "properties": {
        "name": "Norsup Regional Shelter Compound",
        "province": "Malampa",
        "approval_status": "Approved",
        "recorded_internal_capacity": 480,
        "centre_type": "Community Centre",
        "wash_facilities": "Borehole Pump & Tank System",
        "power_generator": "12kVA Generator",
        "status": "Active Registered Evacuation Shelter"
      }
    },
    {
      "type": "Feature",
      "geometry": {
        "type": "Point",
        "coordinates": [
          168.301,
          -16.329
        ]
      },
      "properties": {
        "name": "Ambrym Island Ul\u00e9i Emergency Shelter",
        "province": "Malampa",
        "approval_status": "Draft",
        "recorded_internal_capacity": 180,
        "centre_type": "School Hall",
        "wash_facilities": "Rainwater Catchment",
        "power_generator": "Solar DC Array",
        "status": "Draft Registration"
      }
    },
    {
      "type": "Feature",
      "geometry": {
        "type": "Point",
        "coordinates": [
          167.967,
          -15.306
        ]
      },
      "properties": {
        "name": "Ambae Longana Emergency Relief Station",
        "province": "Penama",
        "approval_status": "Approved",
        "recorded_internal_capacity": 380,
        "centre_type": "Health Centre Compound",
        "wash_facilities": "Rainwater Tanks & Emergency Latrines",
        "power_generator": "Standby Generator",
        "status": "Active Registered Evacuation Shelter"
      }
    },
    {
      "type": "Feature",
      "geometry": {
        "type": "Point",
        "coordinates": [
          168.172,
          -15.865
        ]
      },
      "properties": {
        "name": "Pentecost Island Lonorore Shelter",
        "province": "Penama",
        "approval_status": "Under Review",
        "recorded_internal_capacity": 290,
        "centre_type": "Community Hall",
        "wash_facilities": "Stream Feed & Filtration Tanks",
        "power_generator": "Portable Generator",
        "status": "Pending Inspection Approval"
      }
    },
    {
      "type": "Feature",
      "geometry": {
        "type": "Point",
        "coordinates": [
          167.537,
          -13.851
        ]
      },
      "properties": {
        "name": "Sola Provincial Headquarters Shelter",
        "province": "Torba",
        "approval_status": "Approved",
        "recorded_internal_capacity": 340,
        "centre_type": "Provincial Assembly Hall",
        "wash_facilities": "Desalination & Tank System",
        "power_generator": "Solar & Standby Generator",
        "status": "Active Registered Evacuation Shelter"
      }
    }
  ]
}