{
  "type": "FeatureCollection",
  "features": [
    {
      "type": "Feature",
      "geometry": {
        "type": "Point",
        "coordinates": [
          167.1814,
          -15.5181
        ]
      },
      "properties": {
        "name": "Luganville Port Terminal",
        "port_code": "port669",
        "province": "Sanma",
        "facility_type": "Maritime Deepwater Port",
        "total_port_calls_recorded": 510,
        "container_imports_teu": 199828,
        "total_imports_cargo_tonnes": 443046,
        "total_exports_cargo_tonnes": 127739,
        "last_activity_date": "2026-08-07",
        "status": "Active Operational Port"
      }
    },
    {
      "type": "Feature",
      "geometry": {
        "type": "Point",
        "coordinates": [
          168.3142,
          -17.7472
        ]
      },
      "properties": {
        "name": "Port Vila Port Terminal",
        "port_code": "port980",
        "province": "Shefa",
        "facility_type": "Maritime Deepwater Port",
        "total_port_calls_recorded": 940,
        "container_imports_teu": 514051,
        "total_imports_cargo_tonnes": 753052,
        "total_exports_cargo_tonnes": 156287,
        "last_activity_date": "2026-08-07",
        "status": "Active Operational Port"
      }
    }
  ]
}